TIANTONG-1 1            
1 41725U 16048A   17345.89837723 -.00000326  00000-0  00000-0 0  9997
2 41725   4.3409 325.7388 0007208 349.5926 190.2946  1.00272565  5095
